STARLINK-32853          
1 62818U 25018N   26068.89526214  .00029873  00000+0  10161-2 0  9999
2 62818  53.1589 308.3713 0001012  95.0655 265.0461 15.30216581 63215
KUIPER-00175            
1 67135U 25301C   26068.97960463  .00019968  00000+0  66732-3 0  9998
2 67135  51.8781  63.6978 0002279  50.5695 309.5490 15.30996371 13854
